{
    "links": {
        "self": "http://www.neowsapp.com/rest/v1/neo/3843614?api_key=iIulBulltgU6a56xZRHN4H3l9WmuAYTsLGpBGhQ2"
    },
    "id": "3843614",
    "neo_reference_id": "3843614",
    "name": "(2019 QC2)",
    "designation": "2019 QC2",
    "nasa_jpl_url": "http://ssd.jpl.nasa.gov/sbdb.cgi?sstr=3843614",
    "absolute_magnitude_h": 25.5,
    "estimated_diameter": {
        "kilometers": {
            "estimated_diameter_min": 0.0211132445,
            "estimated_diameter_max": 0.0472106499
        },
        "meters": {
            "estimated_diameter_min": 21.113244479,
            "estimated_diameter_max": 47.2106498806
        },
        "miles": {
            "estimated_diameter_min": 0.0131191578,
            "estimated_diameter_max": 0.0293353287
        },
        "feet": {
            "estimated_diameter_min": 69.2691770164,
            "estimated_diameter_max": 154.8905885541
        }
    },
    "is_potentially_hazardous_asteroid": false,
    "close_approach_data": [
        {
            "close_approach_date": "2019-08-29",
            "close_approach_date_full": "2019-Aug-29 10:57",
            "epoch_date_close_approach": 1567076220000,
            "relative_velocity": {
                "kilometers_per_second": "7.5167418491",
                "kilometers_per_hour": "27060.2706566831",
                "miles_per_hour": "16814.199842204"
            },
            "miss_distance": {
                "astronomical": "0.0904880498",
                "lunar": "35.1998513722",
                "kilometers": "13536819.510533926",
                "miles": "8411389.6025271388"
            },
            "orbiting_body": "Earth"
        }
    ],
    "orbital_data": {
        "orbit_id": "3",
        "orbit_determination_date": "2019-09-08 05:53:53",
        "first_observation_date": "2019-08-24",
        "last_observation_date": "2019-09-07",
        "data_arc_in_days": 14,
        "observations_used": 18,
        "orbit_uncertainty": "8",
        "minimum_orbit_intersection": ".0863317",
        "jupiter_tisserand_invariant": "4.152",
        "epoch_osculation": "2458721.5",
        "eccentricity": ".345304671795514",
        "semi_major_axis": "1.672146242088783",
        "inclination": "12.27157880785383",
        "ascending_node_longitude": "332.2664919624181",
        "orbital_period": "789.7866939492359",
        "perihelion_distance": "1.094746332770214",
        "perihelion_argument": "8.106484604631969",
        "aphelion_distance": "2.249546151407353",
        "perihelion_time": "2458731.158576334227",
        "mean_anomaly": "355.597434716284",
        "mean_motion": ".4558192772277058",
        "equinox": "J2000",
        "orbit_class": {
            "orbit_class_type": "AMO",
            "orbit_class_description": "Near-Earth asteroid orbits similar to that of 1221 Amor",
            "orbit_class_range": "1.017 AU < q (perihelion) < 1.3 AU"
        }
    },
    "is_sentry_object": false
}